STARLINK-6106           
1 57154U 23090BF  26202.09460159 -.00000034  00000+0  82801-5 0  9993
2 57154  43.0007 230.1312 0001271 271.5950  88.4756 15.27575527170945
STARLINK-6108           
1 57155U 23090BG  26202.11258624  .00000123  00000+0  13980-4 0  9998
2 57155  43.0007 230.2636 0001099 269.4953  90.5772 15.27577381170945
STARLINK-6137           
1 57156U 23090BH  26202.58335648  .00905598  00000+0  62040-2 0  9991
2 57156  43.0029 221.2507 0001707 278.4261 263.2007 15.71693229  5873
METEOR-M2 3             
1 57166U 23091A   26202.59722071 -.00000019  00000+0  10671-4 0  9994
2 57166  98.6064 256.8679 0005075  76.0581 284.1162 14.24049298159414
2023-091C               
1 57168U 23091C   26202.57051004  .00007791  00000+0  29587-3 0  9993
2 57168  97.5001 265.0593 0010313 354.5068   5.6056 15.27059357169507
2023-091D               
1 57169U 23091D   26202.58144753  .00007322  00000+0  29889-3 0  9994
2 57169  97.5088 264.1998 0009021 351.0412   9.0663 15.24673412169403
2023-091E               
1 57170U 23091E   26202.58160736  .00007461  00000+0  30462-3 0  9998
2 57170  97.5093 264.2800 0007743 342.9358  17.1618 15.24673654169409
2023-091F               
1 57171U 23091F   26202.58119971  .00006779  00000+0  27691-3 0  9995
2 57171  97.5089 264.2284 0010085   1.5578 358.5689 15.24673362169402
UMKA 1 (RS40S)          
1 57172U 23091G   26202.63251850  .00005241  00000+0  23791-3 0  9995
2 57172  97.5028 261.2016 0012382   7.6583 352.4839 15.21166962169243
2023-091H               
1 57173U 23091H   26202.60668032  .00010135  00000+0  35876-3 0  9992
2 57173  97.5027 266.0905 0008901   2.8356 357.2933 15.29302382169569
2023-091J               
1 57174U 23091J   26202.62140414  .00003515  00000+0  19608-3 0  9993
2 57174  97.5034 255.2277 0013904  35.9000 324.3163 15.14141353168845
CUBEBEL 2 (EU11S)       
1 57175U 23091K   26202.59464908  .00011648  00000+0  40409-3 0  9996
2 57175  97.5029 266.1346 0008849   4.1104 356.0208 15.29921966169567
SITRO-AIS 5 (KATYS)     
1 57176U 23091L   26202.60567895  .00010503  00000+0  36196-3 0  9995
2 57176  97.5039 266.8466 0009983 349.0614  11.0408 15.30155332169609
ZORKIY-2M 1             
1 57177U 23091M   26202.61637513  .00005551  00000+0  25080-3 0  9999
2 57177  97.5069 261.4780 0012741   4.2818 355.8524 15.21301325169237
CUBESX-HSE 3 (RS42S)    
1 57178U 23091N   26202.60369833  .00011955  00000+0  38903-3 0  9999
2 57178  97.5069 268.6419 0009039 337.6192  22.4654 15.31986103169695
2023-091P               
1 57179U 23091P   26202.59256559  .00003220  00000+0  16727-3 0  9994
2 57179  97.5073 258.2439 0014772  12.8899 347.2709 15.16729596169002
MONITOR-3 (RS58S)       
1 57180U 23091Q   26202.64052986  .00009205  00000+0  33458-3 0  9999
2 57180  97.5061 266.3510 0010312 346.2165  13.8792 15.28451612169559
2023-091R               
1 57181U 23091R   26202.58145771  .00001978  00000+0  11022-3 0  9990
2 57181  97.5047 256.0754 0015471  24.9594 335.2383 15.14680399168891
MONITOR-4 (RS57S)       
1 57182U 23091S   26202.61765950  .00009180  00000+0  33278-3 0  9992
2 57182  97.5056 266.3011 0010333 346.6104  13.4860 15.28539218169552
2023-091T               
1 57183U 23091T   26202.58699465  .00004182  00000+0  20138-3 0  9994
2 57183  97.5067 261.0062 0010654 359.9115   0.2116 15.19266550169192
MONITOR-2 (RS39S)       
1 57184U 23091U   26202.63195965  .00003905  00000+0  18864-3 0  9992
2 57184  97.5050 260.6946 0010731   2.0683 358.0594 15.19191493169189
2023-091V               
1 57185U 23091V   26202.60684566  .00020127  00000+0  49443-3 0  9992
2 57185  97.5036 274.1985 0004597 313.8424  46.2442 15.40689987170078
CSTP 1.2 (STC 1.2)      
1 57186U 23091W   26202.59491540  .00007264  00000+0  25648-3 0  9997
2 57186  97.5128 269.2036 0016791 336.2235  23.8227 15.29401306169716
SVYATOBOR 1 (RS60S)     
1 57187U 23091X   26202.59596951  .00007934  00000+0  30074-3 0  9993
2 57187  97.5068 266.6124 0008092 340.8777  19.2157 15.27130360169567
HORS 1                  
1 57188U 23091Y   26202.57894698  .00007697  00000+0  29085-3 0  9997
2 57188  97.5044 266.3534 0007556 341.0277  19.0679 15.27251131169563
VIZARD-METEO (RS38S)    
1 57189U 23091Z   26202.59754734  .00015746  00000+0  43674-3 0  9990
2 57189  97.5069 272.7947 0005227 311.6611  48.4185 15.37005342169973
POLYTECH-UNIVERSE 3 (R*)
1 57191U 23091AB  26202.58858126  .00004210  00000+0  20155-3 0  9995
2 57191  97.5027 260.1558 0015456  16.3456 343.8274 15.19403903169178
SITRO-AIS 6 (CHIRKIN)   
1 57192U 23091AC  26202.59989673  .00008958  00000+0  34530-3 0  9994
2 57192  97.5046 265.7741 0010523 353.7712   6.3394 15.26512220169533
SITRO-AIS 8 (ANOKHIN)   
1 57193U 23091AD  26202.62627567  .00013144  00000+0  41456-3 0  9998
2 57193  97.5034 268.6000 0008880 343.7652  16.3304 15.32967175169729
SITRO-AIS 7 (FARTUSHNIY)
1 57194U 23091AE  26202.61026130  .00008276  00000+0  32244-3 0  9992
2 57194  97.5042 265.5910 0010461 355.0892   5.0242 15.26183814169522
