OBJECT_NAME,OBJECT_ID,EPOCH,MEAN_MOTION,ECCENTRICITY,INCLINATION,RA_OF_ASC_NODE,ARG_OF_PERICENTER,MEAN_ANOMALY,EPHEMERIS_TYPE,CLASSIFICATION_TYPE,NORAD_CAT_ID,ELEMENT_SET_NO,REV_AT_EPOCH,BSTAR,MEAN_MOTION_DOT,MEAN_MOTION_DDOT
STARLINK-6106,2023-090BF,2026-07-21T02:16:13.577376,15.27575527,.00012712,43.0007,230.1312,271.5950,88.4756,0,U,57154,999,17094,.8280082E-5,-.34E-6,0
STARLINK-6108,2023-090BG,2026-07-21T02:42:07.451136,15.27577381,.00010992,43.0007,230.2636,269.4953,90.5772,0,U,57155,999,17094,.13980462E-4,.123E-5,0
STARLINK-6137,2023-090BH,2026-07-21T14:00:01.999872,15.71693229,.00017077,43.0029,221.2507,278.4261,263.2007,0,U,57156,999,587,.62039828E-2,.905598E-2,0
METEOR-M2 3,2023-091A,2026-07-21T14:19:59.869344,14.24049298,.00050755,98.6064,256.8679,76.0581,284.1162,0,U,57166,999,15941,.10670676E-4,-.19E-6,0
2023-091C,2023-091C,2026-07-21T13:41:32.067456,15.27059357,.00103135,97.5001,265.0593,354.5068,5.6056,0,U,57168,999,16950,.29586605E-3,.7791E-4,0
2023-091D,2023-091D,2026-07-21T13:57:17.066592,15.24673412,.0009021,97.5088,264.1998,351.0412,9.0663,0,U,57169,999,16940,.29889243E-3,.7322E-4,0
2023-091E,2023-091E,2026-07-21T13:57:30.875904,15.24673654,.00077431,97.5093,264.2800,342.9358,17.1618,0,U,57170,999,16940,.30461514E-3,.7461E-4,0
2023-091F,2023-091F,2026-07-21T13:56:55.654944,15.24673362,.00100855,97.5089,264.2284,1.5578,358.5689,0,U,57171,999,16940,.27691031E-3,.6779E-4,0
UMKA 1 (RS40S),2023-091G,2026-07-21T15:10:49.598400,15.21166962,.00123829,97.5028,261.2016,7.6583,352.4839,0,U,57172,999,16924,.23790953E-3,.5241E-4,0
2023-091H,2023-091H,2026-07-21T14:33:37.179648,15.29302382,.0008901,97.5027,266.0905,2.8356,357.2933,0,U,57173,999,16956,.35875722E-3,.10135E-3,0
2023-091J,2023-091J,2026-07-21T14:54:49.317696,15.14141353,.00139047,97.5034,255.2277,35.9000,324.3163,0,U,57174,999,16884,.19608475E-3,.3515E-4,0
CUBEBEL 2 (EU11S),2023-091K,2026-07-21T14:16:17.680512,15.29921966,.00088497,97.5029,266.1346,4.1104,356.0208,0,U,57175,999,16956,.40409087E-3,.11648E-3,0
SITRO-AIS 5 (KATYS),2023-091L,2026-07-21T14:32:10.661280,15.30155332,.00099831,97.5039,266.8466,349.0614,11.0408,0,U,57176,999,16960,.36196447E-3,.10503E-3,0
ZORKIY-2M 1,2023-091M,2026-07-21T14:47:34.811232,15.21301325,.00127412,97.5069,261.4780,4.2818,355.8524,0,U,57177,999,16923,.25080056E-3,.5551E-4,0
CUBESX-HSE 3 (RS42S),2023-091N,2026-07-21T14:29:19.535712,15.31986103,.00090391,97.5069,268.6419,337.6192,22.4654,0,U,57178,999,16969,.38902756E-3,.11955E-3,0
2023-091P,2023-091P,2026-07-21T14:13:17.666976,15.16729596,.00147721,97.5073,258.2439,12.8899,347.2709,0,U,57179,999,16900,.16727141E-3,.322E-4,0
MONITOR-3 (RS58S),2023-091Q,2026-07-21T15:22:21.779904,15.28451612,.00103125,97.5061,266.3510,346.2165,13.8792,0,U,57180,999,16955,.33457562E-3,.9205E-4,0
2023-091R,2023-091R,2026-07-21T13:57:17.946144,15.14680399,.00154711,97.5047,256.0754,24.9594,335.2383,0,U,57181,999,16889,.11022015E-3,.1978E-4,0
MONITOR-4 (RS57S),2023-091S,2026-07-21T14:49:25.780800,15.28539218,.00103333,97.5056,266.3011,346.6104,13.4860,0,U,57182,999,16955,.33278179E-3,.918E-4,0
2023-091T,2023-091T,2026-07-21T14:05:16.337760,15.19266550,.00106543,97.5067,261.0062,359.9115,0.2116,0,U,57183,999,16919,.20137846E-3,.4182E-4,0
MONITOR-2 (RS39S),2023-091U,2026-07-21T15:10:01.313760,15.19191493,.00107318,97.5050,260.6946,2.0683,358.0594,0,U,57184,999,16918,.18863928E-3,.3905E-4,0
2023-091V,2023-091V,2026-07-21T14:33:51.465024,15.40689987,.00045971,97.5036,274.1985,313.8424,46.2442,0,U,57185,999,17007,.49442659E-3,.20127E-3,0
CSTP 1.2 (STC 1.2),2023-091W,2026-07-21T14:16:40.690560,15.29401306,.00167919,97.5128,269.2036,336.2235,23.8227,0,U,57186,999,16971,.2564762E-3,.7264E-4,0
SVYATOBOR 1 (RS60S),2023-091X,2026-07-21T14:18:11.765664,15.27130360,.00080925,97.5068,266.6124,340.8777,19.2157,0,U,57187,999,16956,.30073904E-3,.7934E-4,0
HORS 1,2023-091Y,2026-07-21T13:53:41.019072,15.27251131,.00075565,97.5044,266.3534,341.0277,19.0679,0,U,57188,999,16956,.2908457E-3,.7697E-4,0
VIZARD-METEO (RS38S),2023-091Z,2026-07-21T14:20:28.090176,15.37005342,.00052271,97.5069,272.7947,311.6611,48.4185,0,U,57189,999,16997,.43673685E-3,.15746E-3,0
POLYTECH-UNIVERSE 3 (RS46S),2023-091AB,2026-07-21T14:07:33.420864,15.19403903,.00154565,97.5027,260.1558,16.3456,343.8274,0,U,57191,999,16917,.20155343E-3,.421E-4,0
SITRO-AIS 6 (CHIRKIN),2023-091AC,2026-07-21T14:23:51.077472,15.26512220,.00105233,97.5046,265.7741,353.7712,6.3394,0,U,57192,999,16953,.34529647E-3,.8958E-4,0
SITRO-AIS 8 (ANOKHIN),2023-091AD,2026-07-21T15:01:50.217888,15.32967175,.00088802,97.5034,268.6000,343.7652,16.3304,0,U,57193,999,16972,.41455641E-3,.13144E-3,0
SITRO-AIS 7 (FARTUSHNIY),2023-091AE,2026-07-21T14:38:46.576320,15.26183814,.00104617,97.5042,265.5910,355.0892,5.0242,0,U,57194,999,16952,.32243575E-3,.8276E-4,0
